HAWK-11A                
1 62382U 24247F   26068.51231358  .00009457  00000+0  34106-3 0  9991
2 62382  44.9941 114.3328 0005466 327.3713  32.6832 15.28849427 67741
STARLINK-34607          
1 64742U 25144U   26068.52307576  .00007577  00000+0  26794-3 0  9992
2 64742  53.1586 182.0056 0001441 112.0264 248.0890 15.30171229 39667
